QIANFAN-57              
1 62787U 25016C   25196.91772429  .00000140  00000+0  19826-3 0  9991
2 62787  88.9868 118.6312 0017415  63.4949 296.7985 13.50957529 26970
QIANFAN-58              
1 62788U 25016D   25196.88893596  .00000142  00000+0  20158-3 0  9999
2 62788  88.9837 118.5124 0016208  59.1105 301.1638 13.50950993 27012
QIANFAN-59              
1 62789U 25016E   25196.82732439  .00000132  00000+0  18621-3 0  9993
2 62789  88.9861 118.5536 0017147  61.9638 298.3245 13.50955437 27000
QIANFAN-60              
1 62790U 25016F   25196.81898741  .00000141  00000+0  19883-3 0  9994
2 62790  88.9842 118.5626 0017597  59.9100 300.3793 13.50963730 26984
QIANFAN-61              
1 62791U 25016G   25196.83142445  .00000126  00000+0  17664-3 0  9998
2 62791  88.9910 118.6170 0017017  58.8867 301.3951 13.50953368 27008
QIANFAN-62              
1 62792U 25016H   25196.90942491  .00000128  00000+0  17906-3 0  9997
2 62792  88.9856 118.5586 0018417  58.7683 301.5270 13.50958431 27000
QIANFAN-63              
1 62793U 25016J   25196.84772107  .00000141  00000+0  19942-3 0  9993
2 62793  88.9863 118.5035 0018260  62.9237 297.3775 13.50958289 27032
QIANFAN-64              
1 62794U 25016K   25196.91356109  .00000130  00000+0  18189-3 0  9992
2 62794  88.9850 118.4970 0016040  57.5863 302.6838 13.50958027 27035
